{
  "type": "FeatureCollection",
  "features": [
    {
      "type": "Feature",
      "properties": {
        "name": "palma-centro",
        "label": "Palma Centro",
        "postal_codes": ["07001", "07002", "07003"]
      },
      "geometry": {
        "type": "Polygon",
        "coordinates": [[
          [2.6440, 39.5660],
          [2.6530, 39.5660],
          [2.6600, 39.5690],
          [2.6600, 39.5760],
          [2.6530, 39.5780],
          [2.6440, 39.5770],
          [2.6420, 39.5710],
          [2.6440, 39.5660]
        ]]
      }
    },
    {
      "type": "Feature",
      "properties": {
        "name": "santa-catalina",
        "label": "Santa Catalina / Son Armadams",
        "postal_codes": ["07013", "07014"]
      },
      "geometry": {
        "type": "Polygon",
        "coordinates": [[
          [2.6240, 39.5660],
          [2.6380, 39.5660],
          [2.6440, 39.5710],
          [2.6440, 39.5770],
          [2.6350, 39.5790],
          [2.6240, 39.5780],
          [2.6200, 39.5720],
          [2.6240, 39.5660]
        ]]
      }
    },
    {
      "type": "Feature",
      "properties": {
        "name": "el-terreno",
        "label": "El Terreno / Bonanova",
        "postal_codes": ["07015"]
      },
      "geometry": {
        "type": "Polygon",
        "coordinates": [[
          [2.6050, 39.5560],
          [2.6200, 39.5570],
          [2.6240, 39.5660],
          [2.6200, 39.5720],
          [2.6100, 39.5710],
          [2.6020, 39.5650],
          [2.6050, 39.5560]
        ]]
      }
    },
    {
      "type": "Feature",
      "properties": {
        "name": "son-espanyolet",
        "label": "Son Espanyolet / Son Oliva",
        "postal_codes": ["07004", "07008", "07009", "07010"]
      },
      "geometry": {
        "type": "Polygon",
        "coordinates": [[
          [2.6280, 39.5780],
          [2.6440, 39.5780],
          [2.6600, 39.5760],
          [2.6620, 39.5850],
          [2.6560, 39.5920],
          [2.6400, 39.5930],
          [2.6280, 39.5880],
          [2.6280, 39.5780]
        ]]
      }
    },
    {
      "type": "Feature",
      "properties": {
        "name": "pere-garau",
        "label": "Pere Garau / Foners",
        "postal_codes": ["07005", "07006", "07007"]
      },
      "geometry": {
        "type": "Polygon",
        "coordinates": [[
          [2.6600, 39.5660],
          [2.6780, 39.5650],
          [2.6850, 39.5700],
          [2.6850, 39.5800],
          [2.6750, 39.5850],
          [2.6620, 39.5850],
          [2.6600, 39.5760],
          [2.6600, 39.5660]
        ]]
      }
    },
    {
      "type": "Feature",
      "properties": {
        "name": "playa-de-palma",
        "label": "Playa de Palma / S'Arenal",
        "postal_codes": ["07600", "07610"]
      },
      "geometry": {
        "type": "Polygon",
        "coordinates": [[
          [2.7000, 39.5100],
          [2.7500, 39.5050],
          [2.7700, 39.5150],
          [2.7650, 39.5350],
          [2.7350, 39.5400],
          [2.7050, 39.5350],
          [2.6950, 39.5200],
          [2.7000, 39.5100]
        ]]
      }
    },
    {
      "type": "Feature",
      "properties": {
        "name": "marratxi",
        "label": "Marratxi / Pont d'Inca",
        "postal_codes": ["07141"]
      },
      "geometry": {
        "type": "Polygon",
        "coordinates": [[
          [2.6700, 39.6200],
          [2.7200, 39.6180],
          [2.7400, 39.6350],
          [2.7350, 39.6550],
          [2.7050, 39.6600],
          [2.6700, 39.6500],
          [2.6650, 39.6350],
          [2.6700, 39.6200]
        ]]
      }
    },
    {
      "type": "Feature",
      "properties": {
        "name": "calvia",
        "label": "Calvia / Magaluf",
        "postal_codes": ["07180", "07181", "07182", "07183", "07184"]
      },
      "geometry": {
        "type": "Polygon",
        "coordinates": [[
          [2.4700, 39.4950],
          [2.5200, 39.4900],
          [2.5600, 39.5050],
          [2.5650, 39.5350],
          [2.5500, 39.5550],
          [2.5100, 39.5500],
          [2.4800, 39.5300],
          [2.4700, 39.4950]
        ]]
      }
    },
    {
      "type": "Feature",
      "properties": {
        "name": "inca",
        "label": "Inca / Sa Pobla",
        "postal_codes": ["07300", "07310", "07320"]
      },
      "geometry": {
        "type": "Polygon",
        "coordinates": [[
          [2.8500, 39.7000],
          [2.9200, 39.6950],
          [2.9800, 39.7100],
          [3.0000, 39.7500],
          [2.9700, 39.7900],
          [2.9100, 39.7950],
          [2.8600, 39.7700],
          [2.8400, 39.7350],
          [2.8500, 39.7000]
        ]]
      }
    },
    {
      "type": "Feature",
      "properties": {
        "name": "manacor",
        "label": "Manacor / Porto Cristo",
        "postal_codes": ["07500", "07680"]
      },
      "geometry": {
        "type": "Polygon",
        "coordinates": [[
          [3.1500, 39.5300],
          [3.2200, 39.5250],
          [3.3100, 39.5500],
          [3.3200, 39.5800],
          [3.2800, 39.6100],
          [3.2100, 39.6150],
          [3.1600, 39.5900],
          [3.1400, 39.5600],
          [3.1500, 39.5300]
        ]]
      }
    },
    {
      "type": "Feature",
      "properties": {
        "name": "soller",
        "label": "Soller / Valldemossa",
        "postal_codes": ["07100", "07170"]
      },
      "geometry": {
        "type": "Polygon",
        "coordinates": [[
          [2.6200, 39.7200],
          [2.6900, 39.7150],
          [2.7500, 39.7300],
          [2.7800, 39.7700],
          [2.7500, 39.8100],
          [2.6900, 39.8200],
          [2.6300, 39.7900],
          [2.6100, 39.7550],
          [2.6200, 39.7200]
        ]]
      }
    },
    {
      "type": "Feature",
      "properties": {
        "name": "llucmajor",
        "label": "Llucmajor / Campos",
        "postal_codes": ["07620", "07630"]
      },
      "geometry": {
        "type": "Polygon",
        "coordinates": [[
          [2.8200, 39.3700],
          [2.9200, 39.3600],
          [3.0100, 39.3800],
          [3.0200, 39.4300],
          [2.9800, 39.4900],
          [2.9000, 39.4950],
          [2.8400, 39.4700],
          [2.8100, 39.4200],
          [2.8200, 39.3700]
        ]]
      }
    },
    {
      "type": "Feature",
      "properties": {
        "name": "alcudia",
        "label": "Alcudia / Pollenca",
        "postal_codes": ["07400", "07410", "07460"]
      },
      "geometry": {
        "type": "Polygon",
        "coordinates": [[
          [2.9500, 39.8200],
          [3.0200, 39.8100],
          [3.1000, 39.8300],
          [3.1500, 39.8700],
          [3.1300, 39.9100],
          [3.0500, 39.9200],
          [2.9700, 39.9000],
          [2.9400, 39.8600],
          [2.9500, 39.8200]
        ]]
      }
    },
    {
      "type": "Feature",
      "properties": {
        "name": "felanitx",
        "label": "Felanitx / Santanyi",
        "postal_codes": ["07200", "07660"]
      },
      "geometry": {
        "type": "Polygon",
        "coordinates": [[
          [3.0500, 39.3400],
          [3.1500, 39.3300],
          [3.2200, 39.3600],
          [3.2000, 39.4300],
          [3.1600, 39.4800],
          [3.0800, 39.4900],
          [3.0300, 39.4500],
          [3.0300, 39.3900],
          [3.0500, 39.3400]
        ]]
      }
    }
  ]
}
